{"type": "FeatureCollection", "features": [ {"type": "Feature", "properties": {"norad_id": 54234, "name": "NOAA 21 (JPSS-2)", "group": "weather", "lat": 3.009159924927701, "lon": 102.36619220134433, "alt_km": 830.6676997033901, "timestamp": "2025-12-11T13:55:01.810857+00:00", "meta": {"OBJECT_NAME": "NOAA 21 (JPSS-2)", "OBJECT_ID": "2022-150A", "EPOCH": "2025-12-11T06:19:12.984672", "MEAN_MOTION": 14.19523751, "ECCENTRICITY": 0.00022697, "INCLINATION": 98.746, "RA_OF_ASC_NODE": 281.59, "ARG_OF_PERICENTER": 40.896, "MEAN_ANOMALY": 319.2386, "EPHEMERIS_TYPE": 0, "CLASSIFICATION_TYPE": "U", "NORAD_CAT_ID": 54234, "ELEMENT_SET_NO": 999, "REV_AT_EPOCH": 15988, "BSTAR": 0.00011135478, "MEAN_MOTION_DOT": 1.91e-06, "MEAN_MOTION_DDOT": 0}, "tle": {"line1": "1 54234U 22150A   25345.26334473  .00000191  00000+0  11135-3 0  9993", "line2": "2 54234  98.7460 281.5900 0002269  40.8960 319.2386 14.19523751159886"}}, "geometry": {"type": "Point", "coordinates": [102.36619220134433, 3.009159924927701]}}, {"type": "Feature", "properties": {"norad_id": 54743, "name": "METEOSAT-12 (MTG-I1)", "group": "weather", "lat": -0.6973297113303213, "lon": -70.93951633042045, "alt_km": 35780.385349927405, "timestamp": "2025-12-11T13:55:01.810868+00:00", "meta": {"OBJECT_NAME": "METEOSAT-12 (MTG-I1)", "OBJECT_ID": "2022-170C", "EPOCH": "2025-12-11T04:16:38.887104", "MEAN_MOTION": 1.0026855, "ECCENTRICITY": 0.00018055, "INCLINATION": 0.6852, "RA_OF_ASC_NODE": 23.3281, "ARG_OF_PERICENTER": 236.6691, "MEAN_ANOMALY": 244.0704, "EPHEMERIS_TYPE": 0, "CLASSIFICATION_TYPE": "U", "NORAD_CAT_ID": 54743, "ELEMENT_SET_NO": 999, "REV_AT_EPOCH": 1109, "BSTAR": 0, "MEAN_MOTION_DOT": -2e-08, "MEAN_MOTION_DDOT": 0}, "tle": {"line1": "1 54743U 22170C   25345.17822786 -.00000002  00000+0  00000+0 0  9996", "line2": "2 54743   0.6852  23.3281 0001805 236.6691 244.0704  1.00268550 11091"}}, "geometry": {"type": "Point", "coordinates": [-70.93951633042045, -0.6973297113303213]}}, {"type": "Feature", "properties": {"norad_id": 55973, "name": "TIANMU-1 03", "group": "weather", "lat": -43.068264983974764, "lon": 155.28341648779664, "alt_km": 451.08482110776004, "timestamp": "2025-12-11T13:55:01.810880+00:00", "meta": {"OBJECT_NAME": "TIANMU-1 03", "OBJECT_ID": "2023-039A", "EPOCH": "2025-12-11T06:18:46.738944", "MEAN_MOTION": 15.40873184, "ECCENTRICITY": 0.00044713, "INCLINATION": 97.511, "RA_OF_ASC_NODE": 147.8734, "ARG_OF_PERICENTER": 65.408, "MEAN_ANOMALY": 294.7631, "EPHEMERIS_TYPE": 0, "CLASSIFICATION_TYPE": "U", "NORAD_CAT_ID": 55973, "ELEMENT_SET_NO": 999, "REV_AT_EPOCH": 15183, "BSTAR": 0.0012227128, "MEAN_MOTION_DOT": 0.000504, "MEAN_MOTION_DDOT": 0}, "tle": {"line1": "1 55973U 23039A   25345.26304096  .00050400  00000+0  12227-2 0  9999", "line2": "2 55973  97.5110 147.8734 0004471  65.4080 294.7631 15.40873184151838"}}, "geometry": {"type": "Point", "coordinates": [155.28341648779664, -43.068264983974764]}}, {"type": "Feature", "properties": {"norad_id": 55974, "name": "TIANMU-1 04", "group": "weather", "lat": 67.85885227208085, "lon": 128.4875993768511, "alt_km": 432.51282963121594, "timestamp": "2025-12-11T13:55:01.810893+00:00", "meta": {"OBJECT_NAME": "TIANMU-1 04", "OBJECT_ID": "2023-039B", "EPOCH": "2025-12-11T05:49:38.776224", "MEAN_MOTION": 15.41187405, "ECCENTRICITY": 0.00051507, "INCLINATION": 97.5042, "RA_OF_ASC_NODE": 147.0444, "ARG_OF_PERICENTER": 60.6322, "MEAN_ANOMALY": 299.5438, "EPHEMERIS_TYPE": 0, "CLASSIFICATION_TYPE": "U", "NORAD_CAT_ID": 55974, "ELEMENT_SET_NO": 999, "REV_AT_EPOCH": 15183, "BSTAR": 0.00058944325, "MEAN_MOTION_DOT": 0.00024426, "MEAN_MOTION_DDOT": 0}, "tle": {"line1": "1 55974U 23039B   25345.24280991  .00024426  00000+0  58944-3 0  9991", "line2": "2 55974  97.5042 147.0444 0005150  60.6322 299.5438 15.41187405151837"}}, "geometry": {"type": "Point", "coordinates": [128.4875993768511, 67.85885227208085]}}, {"type": "Feature", "properties": {"norad_id": 55975, "name": "TIANMU-1 05", "group": "weather", "lat": 75.27721483843219, "lon": -1.986176746577502, "alt_km": 433.6454357604098, "timestamp": "2025-12-11T13:55:01.810904+00:00", "meta": {"OBJECT_NAME": "TIANMU-1 05", "OBJECT_ID": "2023-039C", "EPOCH": "2025-12-11T07:14:20.806944", "MEAN_MOTION": 15.40834948, "ECCENTRICITY": 0.00043873, "INCLINATION": 97.5089, "RA_OF_ASC_NODE": 147.5972, "ARG_OF_PERICENTER": 81.9044, "MEAN_ANOMALY": 278.27, "EPHEMERIS_TYPE": 0, "CLASSIFICATION_TYPE": "U", "NORAD_CAT_ID": 55975, "ELEMENT_SET_NO": 999, "REV_AT_EPOCH": 15182, "BSTAR": 0.0012407523, "MEAN_MOTION_DOT": 0.00051084, "MEAN_MOTION_DDOT": 0}, "tle": {"line1": "1 55975U 23039C   25345.30162971  .00051084  00000+0  12408-2 0  9990", "line2": "2 55975  97.5089 147.5972 0004387  81.9044 278.2700 15.40834948151823"}}, "geometry": {"type": "Point", "coordinates": [-1.986176746577502, 75.27721483843219]}}, {"type": "Feature", "properties": {"norad_id": 55976, "name": "TIANMU-1 06", "group": "weather", "lat": 56.04276836974401, "lon": 137.04987203493764, "alt_km": 434.0606504307616, "timestamp": "2025-12-11T13:55:01.810915+00:00", "meta": {"OBJECT_NAME": "TIANMU-1 06", "OBJECT_ID": "2023-039D", "EPOCH": "2025-12-11T05:52:51.038688", "MEAN_MOTION": 15.41240112, "ECCENTRICITY": 0.00047159, "INCLINATION": 97.5099, "RA_OF_ASC_NODE": 148.0028, "ARG_OF_PERICENTER": 77.6066, "MEAN_ANOMALY": 282.5708, "EPHEMERIS_TYPE": 0, "CLASSIFICATION_TYPE": "U", "NORAD_CAT_ID": 55976, "ELEMENT_SET_NO": 999, "REV_AT_EPOCH": 15183, "BSTAR": 0.00059353093, "MEAN_MOTION_DOT": 0.00024637, "MEAN_MOTION_DDOT": 0}, "tle": {"line1": "1 55976U 23039D   25345.24503517  .00024637  00000+0  59353-3 0  9994", "line2": "2 55976  97.5099 148.0028 0004715  77.6066 282.5708 15.41240112151836"}}, "geometry": {"type": "Point", "coordinates": [137.04987203493764, 56.04276836974401]}}, {"type": "Feature", "properties": {"norad_id": 56232, "name": "FENGYUN 3G", "group": "weather", "lat": 47.78177606379146, "lon": -58.787976298816616, "alt_km": 397.26467831174614, "timestamp": "2025-12-11T13:55:01.810926+00:00", "meta": {"OBJECT_NAME": "FENGYUN 3G", "OBJECT_ID": "2023-055A", "EPOCH": "2025-12-11T04:19:56.451936", "MEAN_MOTION": 15.53495979, "ECCENTRICITY": 0.00092917, "INCLINATION": 49.9932, "RA_OF_ASC_NODE": 235.5005, "ARG_OF_PERICENTER": 141.2509, "MEAN_ANOMALY": 218.9126, "EPHEMERIS_TYPE": 0, "CLASSIFICATION_TYPE": "U", "NORAD_CAT_ID": 56232, "ELEMENT_SET_NO": 999, "REV_AT_EPOCH": 15078, "BSTAR": 0.00075652798, "MEAN_MOTION_DOT": 0.0004892, "MEAN_MOTION_DDOT": 0}, "tle": {"line1": "1 56232U 23055A   25345.18051449  .00048920  00000+0  75653-3 0  9995", "line2": "2 56232  49.9932 235.5005 0009291 141.2509 218.9126 15.53495979150786"}}, "geometry": {"type": "Point", "coordinates": [-58.787976298816616, 47.78177606379146]}}, {"type": "Feature", "properties": {"norad_id": 57166, "name": "METEOR-M2 3", "group": "weather", "lat": 63.28558580278988, "lon": 21.55861883069153, "alt_km": 803.8245203911774, "timestamp": "2025-12-11T13:55:01.810937+00:00", "meta": {"OBJECT_NAME": "METEOR-M2 3", "OBJECT_ID": "2023-091A", "EPOCH": "2025-12-11T06:52:11.055648", "MEAN_MOTION": 14.24026313, "ECCENTRICITY": 0.00039909, "INCLINATION": 98.638, "RA_OF_ASC_NODE": 38.851, "ARG_OF_PERICENTER": 12.9138, "MEAN_ANOMALY": 347.2143, "EPHEMERIS_TYPE": 0, "CLASSIFICATION_TYPE": "U", "NORAD_CAT_ID": 57166, "ELEMENT_SET_NO": 999, "REV_AT_EPOCH": 12777, "BSTAR": 6.2510144e-05, "MEAN_MOTION_DOT": 1e-06, "MEAN_MOTION_DDOT": 0}, "tle": {"line1": "1 57166U 23091A   25345.28623907  .00000100  00000+0  62510-4 0  9994", "line2": "2 57166  98.6380  38.8510 0003990  12.9138 347.2143 14.24026313127775"}}, "geometry": {"type": "Point", "coordinates": [21.55861883069153, 63.28558580278988]}}, {"type": "Feature", "properties": {"norad_id": 57399, "name": "TIANMU-1 07", "group": "weather", "lat": 1.7575688738986013, "lon": -144.32008206264, "alt_km": 484.7163707906775, "timestamp": "2025-12-11T13:55:01.810948+00:00", "meta": {"OBJECT_NAME": "TIANMU-1 07", "OBJECT_ID": "2023-101A", "EPOCH": "2025-12-11T06:51:15.134976", "MEAN_MOTION": 15.28054135, "ECCENTRICITY": 0.00056086, "INCLINATION": 97.2878, "RA_OF_ASC_NODE": 35.1671, "ARG_OF_PERICENTER": 85.2475, "MEAN_ANOMALY": 274.9405, "EPHEMERIS_TYPE": 0, "CLASSIFICATION_TYPE": "U", "NORAD_CAT_ID": 57399, "ELEMENT_SET_NO": 999, "REV_AT_EPOCH": 13293, "BSTAR": 0.00094387285, "MEAN_MOTION_DOT": 0.00025825, "MEAN_MOTION_DDOT": 0}, "tle": {"line1": "1 57399U 23101A   25345.28559184  .00025825  00000+0  94387-3 0  9996", "line2": "2 57399  97.2878  35.1671 0005608  85.2475 274.9405 15.28054135132932"}}, "geometry": {"type": "Point", "coordinates": [-144.32008206264, 1.7575688738986013]}}, {"type": "Feature", "properties": {"norad_id": 57400, "name": "TIANMU-1 08", "group": "weather", "lat": -0.39058111825233394, "lon": 35.303068544475146, "alt_km": 484.5993257661521, "timestamp": "2025-12-11T13:55:01.810958+00:00", "meta": {"OBJECT_NAME": "TIANMU-1 08", "OBJECT_ID": "2023-101B", "EPOCH": "2025-12-11T06:03:37.924992", "MEAN_MOTION": 15.28019625, "ECCENTRICITY": 0.00075563, "INCLINATION": 97.2866, "RA_OF_ASC_NODE": 34.933, "ARG_OF_PERICENTER": 87.9823, "MEAN_ANOMALY": 272.2282, "EPHEMERIS_TYPE": 0, "CLASSIFICATION_TYPE": "U", "NORAD_CAT_ID": 57400, "ELEMENT_SET_NO": 999, "REV_AT_EPOCH": 13292, "BSTAR": 0.00041334446, "MEAN_MOTION_DOT": 0.00011239, "MEAN_MOTION_DDOT": 0}, "tle": {"line1": "1 57400U 23101B   25345.25252228  .00011239  00000+0  41334-3 0  9993", "line2": "2 57400  97.2866  34.9330 0007556  87.9823 272.2282 15.28019625132929"}}, "geometry": {"type": "Point", "coordinates": [35.303068544475146, -0.39058111825233394]}}]}